INTELSAT 902 (IS-902)   
1 26900U 01039A   26167.53238605 -.00000289  00000+0  00000+0 0  9992
2 26900   6.1158  71.7912 0004343  10.1686 324.3974  1.00272336 90682
INTELSAT 904 (IS-904)   
1 27380U 02007A   26167.46480788 -.00000232  00000+0  00000+0 0  9992
2 27380   6.9187  69.1930 0006472   4.8255 326.5523  1.00270643 51751
DIRECTV 5 (TEMPO 1)     
1 27426U 02023A   26167.49628112 -.00000062  00000+0  00000+0 0  9990
2 27426   4.8765  75.3186 0003284  24.3354 233.6679  1.00271597 88117
INTELSAT 905 (IS-905)   
1 27438U 02027A   26167.49211678  .00000088  00000+0  00000+0 0  9999
2 27438   6.7523  69.8089 0003769  20.4601 214.4340  1.00271164 51351
GALAXY 3C (G-3C)        
1 27445U 02030A   26167.59477399 -.00000157  00000+0  00000+0 0  9994
2 27445   3.7306  77.9846 0001552  32.2131 273.9312  1.00271003 46482
INTELSAT 906 (IS-906)   
1 27513U 02041A   26167.17525350  .00000008  00000+0  00000+0 0  9991
2 27513   5.8002  72.9349 0004606   6.1806 312.5671  1.00272749 87019
GALAXY 13 (HORIZONS-1)  
1 27954U 03044A   26167.58385394  .00000130  00000+0  00000+0 0  9997
2 27954   1.4177  83.8736 0002266 352.5204 248.6323  1.00270750 46562
INTELSAT 10-02          
1 28358U 04022A   26166.68656492 -.00000009  00000+0  00000+0 0  9999
2 28358   0.0116 317.0110 0000298 255.8494 297.2601  1.00272857 80541
DIRECTV 8               
1 28659U 05019A   26167.59000730 -.00000001  00000+0  00000+0 0  9991
2 28659   0.0168 351.0626 0002843 101.8028 265.3381  1.00271857 77066
GALAXY 28 (G-28)        
1 28702U 05022A   26167.39437556 -.00000204  00000+0  00000+0 0  9997
2 28702   3.2965  78.9439 0002863   6.3526 294.2402  1.00270725 51965
GALAXY 16 (G-16)        
1 29236U 06023A   26167.59399399 -.00000130  00000+0  00000+0 0  9994
2 29236   0.0064 118.1857 0002628 336.7835 284.7289  1.00280927 72961
DIRECTV 9S              
1 29494U 06043A   26167.59356065 -.00000117  00000+0  00000+0 0  9990
2 29494   2.4198  80.9082 0004869  12.4270 284.0125  1.00270807 51377
GALAXY 17 (G-17)        
1 31307U 07016B   26167.52539506 -.00000210  00000+0  00000+0 0  9997
2 31307   2.9709  79.9089 0004551  16.8842 272.1268  1.00272031 69794
INTELSAT 11 (IS-11)     
1 32253U 07044B   26167.56770936 -.00000256  00000+0  00000+0 0  9997
2 32253   3.5644  78.6765 0002318  90.7209  68.4046  0.99051084 68445
HORIZONS-2              
1 32388U 07063B   26167.52764840 -.00000256  00000+0  00000+0 0  9990
2 32388   2.6009  80.6329 0003732   1.8971 298.4127  1.00268618 67808
DIRECTV 11              
1 32729U 08013A   26167.49072346 -.00000127  00000+0  00000+0 0  9991
2 32729   0.0097 257.2422 0000414 123.9435 321.0591  1.00272758 45586
GALAXY 18 (G-18)        
1 32951U 08024A   26167.58922730  .00000023  00000+0  00000+0 0  9995
2 32951   0.0166  19.2810 0002707  66.2587 268.4380  1.00272192 45842
INTELSAT 25 (IS-25)     
1 33153U 08034A   26167.59924707 -.00000234  00000+0  00000+0 0  9993
2 33153   2.7088  80.3790 0003276  60.4004 104.0870  0.99035053 65680
GALAXY 19 (G-19)        
1 33376U 08045A   26167.59434066 -.00000141  00000+0  00000+0 0  9993
2 33376   0.0377 264.3098 0002425 184.3605 293.1588  1.00271205 64894
FM-5                    
1 35493U 09034A   26167.52522172 -.00000202  00000+0  00000+0 0  9991
2 35493   0.0218 291.7689 0000925  12.8317  63.1176  1.00269209 46639
INTELSAT 14 (IS-14)     
1 36097U 09064A   26167.46203454 -.00000275  00000+0  00000+0 0  9997
2 36097   0.0189 298.2043 0002177 140.3082 307.5568  1.00270268 60598
INTELSAT 15 (IS-15)     
1 36106U 09067A   26167.48786131 -.00000186  00000+0  00000+0 0  9992
2 36106   0.0137 308.7498 0002028 139.6672  77.1128  1.00270396 41227
DIRECTV 12              
1 36131U 09075A   26167.59321398 -.00000106  00000+0  00000+0 0  9993
2 36131   0.0102 111.7598 0000411 292.3643 331.5752  1.00272950 46547
INTELSAT 16 (IS-16)     
1 36397U 10006A   26167.52721507 -.00000246  00000+0  00000+0 0  9997
2 36397   0.0158 311.4266 0001940 154.3895 272.5641  1.00269164 59646
XM-5                    
1 37185U 10053A   26166.01642035 -.00000018  00000+0  00000+0 0  9993
2 37185   0.0647 273.1886 0002890 289.1857 311.6507  1.00271028 57463
INTELSAT 17 (IS-17)     
1 37238U 10065B   26167.55535281 -.00000003  00000+0  00000+0 0  9993
2 37238   0.0065 294.5866 0002584 160.1755  75.9814  1.00271572 53243
INTELSAT 28 (IS-28)     
1 37392U 11016A   26167.44354583 -.00000228  00000+0  00000+0 0  9992
2 37392   1.8048  82.6291 0003600   6.7859 303.2550  1.00269787 53274
INTELSAT 18 (IS-18)     
1 37834U 11056A   26167.22146318  .00000052  00000+0  00000+0 0  9992
2 37834   0.0151 317.1328 0001550 125.8808  81.2040  1.00271347 53808
INTELSAT 22 (IS-22)     
1 38098U 12011A   26167.55656615 -.00000060  00000+0  00000+0 0  9999
2 38098   0.0154  99.0890 0001582   2.3017  75.8859  1.00272410  7189
INTELSAT 19 (IS-19)     
1 38356U 12030A   26167.54975373 -.00000058  00000+0  00000+0 0  9998
2 38356   0.0157   2.0137 0002836  91.9084 174.7998  1.00271008 50440
INTELSAT 20 (IS-20)     
1 38740U 12043A   26167.55587281 -.00000026  00000+0  00000+0 0  9992
2 38740   0.0080  87.9788 0001738  89.7250 355.7421  1.00270557 50749
